NORAD_CAT_ID,OBJECT_NAME,OBJECT_TYPE,EPOCH,MEAN_MOTION,ECCENTRICITY,INCLINATION,RA_OF_ASC_NODE,ARG_OF_PERICENTER,MEAN_ANOMALY,BSTAR,MEAN_MOTION_DOT,MEAN_MOTION_DDOT,TLE_LINE0,TLE_LINE1,TLE_LINE2,SEMIMAJOR_AXIS,PERIOD,APOGEE,PERIGEE,DECAYED
53619.0,STARLINK-4609,PAYLOAD,2023-10-03 04:51:02,15.08839837,0.0001586,53.2162,262.6905,100.7351,259.382,0.00015222,2.135e-05,0.0,0 STARLINK-4609,1 53619U 22104AH  23276.20210712  .00002135  00000-0  15222-3 0  9994,2 53619  53.2162 262.6905 0001586 100.7351 259.3820 15.08839837 60931,6917.881,95.438,540.843,538.649,0.0
53619.0,STARLINK-4609,PAYLOAD,2023-10-03 06:26:25,15.08842732,0.0001614,53.2159,262.3935,100.951,259.1664,0.00020647,3e-05,0.0,0 STARLINK-4609,1 53619U 22104AH  23276.26834650  .00003000  00000-0  20647-3 0  9992,2 53619  53.2159 262.3935 0001614 100.9510 259.1664 15.08842732 61515,6917.872,95.437,540.854,538.62,0.0
53619.0,STARLINK-4609,PAYLOAD,2023-10-03 15:58:43,15.08842931,0.0001583,53.2162,260.6095,98.5543,261.5629,0.00015,2.1e-05,0.0,0 STARLINK-4609,1 53619U 22104AH  23276.66578671  .00002100  00000-0  15000-3 0  9991,2 53619  53.2162 260.6095 0001583  98.5543 261.5629 15.08842931 61575,6917.871,95.437,540.832,538.641,0.0
53619.0,STARLINK-4609,PAYLOAD,2023-10-03 23:55:40,15.08835956,0.0001932,53.2164,259.1209,90.5388,269.5825,5.6407e-05,6.1e-06,0.0,0 STARLINK-4609,1 53619U 22104AH  23276.99699278  .00000610  00000-0  56407-4 0  9995,2 53619  53.2164 259.1209 0001932  90.5388 269.5825 15.08835956 61052,6917.893,95.438,541.094,538.421,0.0
53619.0,STARLINK-4609,PAYLOAD,2023-10-04 15:49:31,15.08842087,0.0002099,53.2176,256.1472,92.9101,267.2131,4.6105e-05,4.46e-06,0.0,0 STARLINK-4609,1 53619U 22104AH  23277.65939100  .00000446  00000-0  46105-4 0  9991,2 53619  53.2176 256.1472 0002099  92.9101 267.2131 15.08842087 61720,6917.874,95.437,541.191,538.287,0.0
53619.0,STARLINK-4609,PAYLOAD,2023-10-05 02:57:13,15.08845978,0.0001933,53.218,254.0665,92.1919,267.9294,0.00015958,2.253e-05,0.0,0 STARLINK-4609,1 53619U 22104AH  23278.12306895  .00002253  00000-0  15958-3 0  9992,2 53619  53.2180 254.0665 0001933  92.1919 267.9294 15.08845978 61225,6917.862,95.437,541.064,538.39,0.0
53619.0,STARLINK-4609,PAYLOAD,2023-10-05 07:43:21,15.08857098,0.0001503,53.2149,253.1735,99.9872,260.129,0.00034589,5.224e-05,0.0,0 STARLINK-4609,1 53619U 22104AH  23278.32178193  .00005224  00000-0  34589-3 0  9994,2 53619  53.2149 253.1735 0001503  99.9872 260.1290 15.08857098 61254,6917.828,95.436,540.733,538.653,0.0
53619.0,STARLINK-4609,PAYLOAD,2023-10-05 15:40:18,15.08843797,0.0001934,53.2158,251.6862,86.8628,273.2586,0.00012409,1.687e-05,0.0,0 STARLINK-4609,1 53619U 22104AH  23278.65298891  .00001687  00000-0  12409-3 0  9994,2 53619  53.2158 251.6862 0001934  86.8628 273.2586 15.08843797 61300,6917.869,95.437,541.072,538.396,0.0
53619.0,STARLINK-4609,PAYLOAD,2023-10-06 07:34:09,15.08843322,0.0001792,53.2176,248.7097,95.9915,264.1281,0.00013363,1.839e-05,0.0,0 STARLINK-4609,1 53619U 22104AH  23279.31538823  .00001839  00000-0  13363-3 0  9999,2 53619  53.2176 248.7097 0001792  95.9915 264.1281 15.08843322 61977,6917.87,95.437,540.975,538.496,0.0
53619.0,STARLINK-4609,PAYLOAD,2023-10-06 15:31:05,15.08838353,0.0001485,53.2163,247.2261,88.2817,271.8345,7.5461e-05,9.13e-06,0.0,0 STARLINK-4609,1 53619U 22104AH  23279.64659102  .00000913  00000-0  75461-4 0  9999,2 53619  53.2163 247.2261 0001485  88.2817 271.8345 15.08838353 61452,6917.885,95.438,540.778,538.723,0.0
53619.0,STARLINK-4609,PAYLOAD,2023-10-06 21:52:38,15.08835605,0.0001608,53.2167,246.0365,91.9614,268.1563,3.4751e-05,2.65e-06,0.0,0 STARLINK-4609,1 53619U 22104AH  23279.91155329  .00000265  00000-0  34751-4 0  9998,2 53619  53.2167 246.0365 0001608  91.9614 268.1563 15.08835605 62067,6917.894,95.438,540.871,538.646,0.0
53619.0,STARLINK-4609,PAYLOAD,2023-10-07 07:24:56,15.08841185,0.0001773,53.2155,244.2521,90.3091,269.8104,0.00011106,1.48e-05,0.0,0 STARLINK-4609,1 53619U 22104AH  23280.30899276  .00001480  00000-0  11106-3 0  9997,2 53619  53.2155 244.2521 0001773  90.3091 269.8104 15.08841185 62129,6917.877,95.437,540.968,538.515,0.0
53619.0,STARLINK-4609,PAYLOAD,2023-10-07 21:43:25,15.08840996,0.0001708,53.2152,241.5758,87.8825,272.2363,0.00027274,4.055e-05,0.0,0 STARLINK-4609,1 53619U 22104AH  23280.90515514  .00004055  00000-0  27274-3 0  9997,2 53619  53.2152 241.5758 0001708  87.8825 272.2363 15.08840996 62216,6917.877,95.437,540.924,538.561,0.0
53619.0,STARLINK-4609,PAYLOAD,2023-10-08 02:29:34,15.08847347,0.000151,53.2156,240.6832,102.5956,257.5205,0.00034579,5.221e-05,0.0,0 STARLINK-4609,1 53619U 22104AH  23281.10387170  .00005221  00000-0  34579-3 0  9997,2 53619  53.2156 240.6832 0001510 102.5956 257.5205 15.08847347 61671,6917.858,95.437,540.768,538.678,0.0
53619.0,STARLINK-4609,PAYLOAD,2023-10-08 07:15:43,15.08856054,0.000156,53.216,239.7912,103.5297,256.5869,0.00055662,8.586e-05,0.0,0 STARLINK-4609,1 53619U 22104AH  23281.30258867  .00008586  00000-0  55662-3 0  9992,2 53619  53.2160 239.7912 0001560 103.5297 256.5869 15.08856054 62275,6917.831,95.437,540.776,538.617,0.0
53619.0,STARLINK-4609,PAYLOAD,2023-10-08 21:34:12,15.08850032,0.0002028,53.2155,237.1147,93.9705,266.1519,0.00028218,4.207e-05,0.0,0 STARLINK-4609,1 53619U 22104AH  23281.89875062  .00004207  00000-0  28218-3 0  9991,2 53619  53.2155 237.1147 0002028  93.9705 266.1519 15.08850032 62366,6917.85,95.437,541.118,538.312,0.0
53619.0,STARLINK-4609,PAYLOAD,2023-10-09 02:20:21,15.08852516,0.0001674,53.2157,236.2226,100.2901,259.828,0.00031696,4.762e-05,0.0,0 STARLINK-4609,1 53619U 22104AH  23282.09746853  .00004762  00000-0  31696-3 0  9999,2 53619  53.2157 236.2226 0001674 100.2901 259.8280 15.08852516 61825,6917.842,95.437,540.865,538.549,0.0
53619.0,STARLINK-4609,PAYLOAD,2023-10-09 13:28:03,15.08845437,0.0001367,53.2164,234.1405,88.3245,271.7904,0.00015998,2.259e-05,0.0,0 STARLINK-4609,1 53619U 22104AH  23282.56114837  .00002259  00000-0  15998-3 0  9998,2 53619  53.2164 234.1405 0001367  88.3245 271.7904 15.08845437 62466,6917.864,95.437,540.674,538.783,0.0
53619.0,STARLINK-4609,PAYLOAD,2023-10-09 21:24:59,15.08843891,0.0001872,53.2167,232.6552,93.7441,266.3766,0.0002454,3.62e-05,0.0,0 STARLINK-4609,1 53619U 22104AH  23282.89235068  .00003620  00000-0  24540-3 0  9990,2 53619  53.2167 232.6552 0001872  93.7441 266.3766 15.08843891 62518,6917.868,95.437,541.029,538.438,0.0
53619.0,STARLINK-4609,PAYLOAD,2023-10-10 13:18:50,15.08840435,0.0002619,53.2164,229.6799,79.5219,280.6068,0.00059473,9.19e-05,0.0,0 STARLINK-4609,1 53619U 22104AH  23283.55475676  .00009190  00000-0  59473-3 0  9996,2 53619  53.2164 229.6799 0002619  79.5219 280.6068 15.08840435 62615,6917.879,95.438,541.556,537.932,0.0
53619.0,STARLINK-4609,PAYLOAD,2023-10-10 21:15:46,15.08824173,0.0001901,53.2182,228.1981,108.332,251.7879,-0.00034596,-5.788e-05,0.0,0 STARLINK-4609,1 53619U 22104AH  23283.88595720 -.00005788  00000-0 -34596-3 0  9995,2 53619  53.2182 228.1981 0001901 108.3320 251.7879 15.08824173 62664,6917.929,95.439,541.109,538.479,0.0
53619.0,STARLINK-4609,PAYLOAD,2023-10-11 03:37:19,15.08828895,0.0001481,53.217,227.0084,107.1146,253.0008,6.8834e-05,8.07e-06,0.0,0 STARLINK-4609,1 53619U 22104AH  23284.15091941  .00000807  00000-0  68834-4 0  9990,2 53619  53.2170 227.0084 0001481 107.1146 253.0008 15.08828895 62135,6917.914,95.438,540.804,538.755,0.0
53619.0,STARLINK-4609,PAYLOAD,2023-10-11 13:09:38,15.08830021,0.0001207,53.2162,225.2209,96.5531,263.5598,0.00055248,8.513e-05,0.0,0 STARLINK-4609,1 53619U 22104AH  23284.54836315  .00008513  00000-0  55248-3 0  9991,2 53619  53.2162 225.2209 0001207  96.5531 263.5598 15.08830021 62763,6917.911,95.438,540.611,538.941,0.0
53619.0,STARLINK-4609,PAYLOAD,2023-10-12 13:00:25,15.08847227,0.000151,53.2168,220.7605,83.8745,276.2419,0.00058202,8.989e-05,0.0,0 STARLINK-4609,1 53619U 22104AH  23285.54196546  .00008989  00000-0  58202-3 0  9997,2 53619  53.2168 220.7605 0001510  83.8745 276.2419 15.08847227 62918,6917.858,95.437,540.768,538.679,0.0
53619.0,STARLINK-4609,PAYLOAD,2023-10-13 12:51:12,15.08844282,0.0002014,53.2174,216.3018,75.2309,284.8906,0.00015953,2.252e-05,0.0,0 STARLINK-4609,1 53619U 22104AH  23286.53556416  .00002252  00000-0  15953-3 0  9996,2 53619  53.2174 216.3018 0002014  75.2309 284.8906 15.08844282 62492,6917.867,95.437,541.126,538.339,0.0
53619.0,STARLINK-4609,PAYLOAD,2023-10-14 04:45:03,15.08865549,0.0001779,53.2168,213.326,79.2172,280.9021,0.00077362,0.00012054,0.0,0 STARLINK-4609,1 53619U 22104AH  23287.19795567  .00012054  00000-0  77362-3 0  9994,2 53619  53.2168 213.3260 0001779  79.2172 280.9021 15.08865549 62595,6917.802,95.436,540.898,538.437,0.0
53619.0,STARLINK-4609,PAYLOAD,2023-10-14 12:41:59,15.08841665,0.0001143,53.2175,211.8397,97.5263,262.5859,7.7884e-05,9.52e-06,0.0,0 STARLINK-4609,1 53619U 22104AH  23287.52915772  .00000952  00000-0  77884-4 0  9997,2 53619  53.2175 211.8397 0001143  97.5263 262.5859 15.08841665 63214,6917.875,95.437,540.531,538.95,0.0
53619.0,STARLINK-4609,PAYLOAD,2023-10-14 19:03:32,15.08837648,0.0002244,53.2168,210.6513,92.6696,267.4553,0.00018275,2.621e-05,0.0,0 STARLINK-4609,1 53619U 22104AH  23287.79412395  .00002621  00000-0  18275-3 0  9992,2 53619  53.2168 210.6513 0002244  92.6696 267.4553 15.08837648 62683,6917.888,95.438,541.305,538.2,0.0
53619.0,STARLINK-4609,PAYLOAD,2023-10-14 22:14:18,15.08832913,0.0001768,53.2171,210.0551,104.9713,255.1475,-7.0446e-05,-1.409e-05,0.0,0 STARLINK-4609,1 53619U 22104AH  23287.92660348 -.00001409  00000-0 -70446-4 0  9994,2 53619  53.2171 210.0551 0001768 104.9713 255.1475 15.08832913 63273,6917.902,95.438,540.99,538.544,0.0
53619.0,STARLINK-4609,PAYLOAD,2023-10-15 04:35:51,15.08835407,0.0001751,53.2174,208.8644,116.8358,243.2813,0.00014807,2.069e-05,0.0,0 STARLINK-4609,1 53619U 22104AH  23288.19156481  .00002069  00000-0  14807-3 0  9991,2 53619  53.2174 208.8644 0001751 116.8358 243.2813 15.08835407 63313,6917.894,95.438,540.971,538.548,0.0
